[{"OBJECT_NAME":"STARLINK-30095","OBJECT_ID":"2023-056D","EPOCH":"2026-03-09T22:00:01.999584","MEAN_MOTION":15.26748079,"ECCENTRICITY":0.00011913,"INCLINATION":43.003,"RA_OF_ASC_NODE":181.6942,"ARG_OF_PERICENTER":278.916,"MEAN_ANOMALY":30.7341,"EPHEMERIS_TYPE":0,"CLASSIFICATION_TYPE":"U","NORAD_CAT_ID":56289,"ELEMENT_SET_NO":999,"REV_AT_EPOCH":578,"BSTAR":0.00026116241,"MEAN_MOTION_DOT":6.754e-5,"MEAN_MOTION_DDOT":0},{"OBJECT_NAME":"GESAT GEN1","OBJECT_ID":"2025-009D","EPOCH":"2026-03-09T17:26:20.087232","MEAN_MOTION":15.26847505,"ECCENTRICITY":8.879e-5,"INCLINATION":97.4058,"RA_OF_ASC_NODE":151.4598,"ARG_OF_PERICENTER":98.3547,"MEAN_ANOMALY":261.7793,"EPHEMERIS_TYPE":0,"CLASSIFICATION_TYPE":"U","NORAD_CAT_ID":62612,"ELEMENT_SET_NO":999,"REV_AT_EPOCH":6373,"BSTAR":0.00038326131,"MEAN_MOTION_DOT":0.00010041,"MEAN_MOTION_DDOT":0}]
